CCSDS_OMM_VERS = 2.0
CREATION_DATE  = 
ORIGINATOR     = 

OBJECT_NAME    = ERS-1
OBJECT_ID      = 1991-050A
CENTER_NAME    = EARTH
REF_FRAME      = TEME
TIME_SYSTEM    = UTC
MEAN_ELEMENT_THEORY = SGP/SGP4

EPOCH          = 2026-03-27T00:07:55.617312
MEAN_MOTION    = 14.39462135
ECCENTRICITY   = .0032593
INCLINATION    = 98.7868
RA_OF_ASC_NODE = 104.6746
ARG_OF_PERICENTER = 149.2731
MEAN_ANOMALY   = 211.0373

EPHEMERIS_TYPE = 0
CLASSIFICATION_TYPE = U
NORAD_CAT_ID   = 21574
ELEMENT_SET_NO = 999
REV_AT_EPOCH   = 81822
BSTAR          = .11806E-3
MEAN_MOTION_DOT = .324E-5
MEAN_MOTION_DDOT = 0

CCSDS_OMM_VERS = 2.0
CREATION_DATE  = 
ORIGINATOR     = 

OBJECT_NAME    = ARIANE 40 R/B
OBJECT_ID      = 1991-050F
CENTER_NAME    = EARTH
REF_FRAME      = TEME
TIME_SYSTEM    = UTC
MEAN_ELEMENT_THEORY = SGP/SGP4

EPOCH          = 2026-03-27T03:41:41.356032
MEAN_MOTION    = 14.42906003
ECCENTRICITY   = .0003626
INCLINATION    = 98.1976
RA_OF_ASC_NODE = 137.7320
ARG_OF_PERICENTER = 41.8206
MEAN_ANOMALY   = 318.3261

EPHEMERIS_TYPE = 0
CLASSIFICATION_TYPE = U
NORAD_CAT_ID   = 21610
ELEMENT_SET_NO = 999
REV_AT_EPOCH   = 82151
BSTAR          = .10338E-3
MEAN_MOTION_DOT = .304E-5
MEAN_MOTION_DDOT = 0

CCSDS_OMM_VERS = 2.0
CREATION_DATE  = 
ORIGINATOR     = 

OBJECT_NAME    = INTERCOSMOS 25
OBJECT_ID      = 1991-086A
CENTER_NAME    = EARTH
REF_FRAME      = TEME
TIME_SYSTEM    = UTC
MEAN_ELEMENT_THEORY = SGP/SGP4

EPOCH          = 2026-03-27T01:48:22.184064
MEAN_MOTION    = 12.12057217
ECCENTRICITY   = .1486591
INCLINATION    = 82.6018
RA_OF_ASC_NODE = 299.4982
ARG_OF_PERICENTER = 79.4738
MEAN_ANOMALY   = 296.9843

EPHEMERIS_TYPE = 0
CLASSIFICATION_TYPE = U
NORAD_CAT_ID   = 21819
ELEMENT_SET_NO = 999
REV_AT_EPOCH   = 49879
BSTAR          = .29723E-3
MEAN_MOTION_DOT = .1552E-4
MEAN_MOTION_DDOT = 0

CCSDS_OMM_VERS = 2.0
CREATION_DATE  = 
ORIGINATOR     = 

OBJECT_NAME    = SL-8 R/B
OBJECT_ID      = 1992-008B
CENTER_NAME    = EARTH
REF_FRAME      = TEME
TIME_SYSTEM    = UTC
MEAN_ELEMENT_THEORY = SGP/SGP4

EPOCH          = 2026-03-27T04:42:49.853376
MEAN_MOTION    = 13.75969576
ECCENTRICITY   = .0035975
INCLINATION    = 82.9230
RA_OF_ASC_NODE = 254.7513
ARG_OF_PERICENTER = 86.1045
MEAN_ANOMALY   = 86.4963

EPHEMERIS_TYPE = 0
CLASSIFICATION_TYPE = U
NORAD_CAT_ID   = 21876
ELEMENT_SET_NO = 999
REV_AT_EPOCH   = 71182
BSTAR          = .16944E-4
MEAN_MOTION_DOT = .32E-6
MEAN_MOTION_DDOT = 0

CCSDS_OMM_VERS = 2.0
CREATION_DATE  = 
ORIGINATOR     = 

OBJECT_NAME    = SL-8 R/B
OBJECT_ID      = 1992-020B
CENTER_NAME    = EARTH
REF_FRAME      = TEME
TIME_SYSTEM    = UTC
MEAN_ELEMENT_THEORY = SGP/SGP4

EPOCH          = 2026-03-27T05:20:56.584032
MEAN_MOTION    = 13.75550533
ECCENTRICITY   = .0027704
INCLINATION    = 82.9306
RA_OF_ASC_NODE = 140.7439
ARG_OF_PERICENTER = 247.5148
MEAN_ANOMALY   = 176.1213

EPHEMERIS_TYPE = 0
CLASSIFICATION_TYPE = U
NORAD_CAT_ID   = 21938
ELEMENT_SET_NO = 999
REV_AT_EPOCH   = 70354
BSTAR          = .19978E-4
MEAN_MOTION_DOT = .34E-6
MEAN_MOTION_DDOT = 0

CCSDS_OMM_VERS = 2.0
CREATION_DATE  = 
ORIGINATOR     = 

OBJECT_NAME    = USA 81
OBJECT_ID      = 1992-023A
CENTER_NAME    = EARTH
REF_FRAME      = TEME
TIME_SYSTEM    = UTC
MEAN_ELEMENT_THEORY = SGP/SGP4

EPOCH          = 2026-03-27T04:38:00.277728
MEAN_MOTION    = 14.32373481
ECCENTRICITY   = .0001845
INCLINATION    = 85.0050
RA_OF_ASC_NODE = 121.3403
ARG_OF_PERICENTER = 68.0623
MEAN_ANOMALY   = 292.0765

EPHEMERIS_TYPE = 0
CLASSIFICATION_TYPE = U
NORAD_CAT_ID   = 21949
ELEMENT_SET_NO = 999
REV_AT_EPOCH   = 9729
BSTAR          = .56307E-4
MEAN_MOTION_DOT = .172E-5
MEAN_MOTION_DDOT = 0

CCSDS_OMM_VERS = 2.0
CREATION_DATE  = 
ORIGINATOR     = 

OBJECT_NAME    = COSMOS 2219
OBJECT_ID      = 1992-076A
CENTER_NAME    = EARTH
REF_FRAME      = TEME
TIME_SYSTEM    = UTC
MEAN_ELEMENT_THEORY = SGP/SGP4

EPOCH          = 2026-03-27T03:14:03.710688
MEAN_MOTION    = 14.14091411
ECCENTRICITY   = .0017994
INCLINATION    = 71.0627
RA_OF_ASC_NODE = 341.6040
ARG_OF_PERICENTER = 181.6081
MEAN_ANOMALY   = 178.4986

EPHEMERIS_TYPE = 0
CLASSIFICATION_TYPE = U
NORAD_CAT_ID   = 22219
ELEMENT_SET_NO = 999
REV_AT_EPOCH   = 72084
BSTAR          = -.98088E-4
MEAN_MOTION_DOT = -.234E-5
MEAN_MOTION_DDOT = 0

CCSDS_OMM_VERS = 2.0
CREATION_DATE  = 
ORIGINATOR     = 

OBJECT_NAME    = SL-16 R/B
OBJECT_ID      = 1992-076B
CENTER_NAME    = EARTH
REF_FRAME      = TEME
TIME_SYSTEM    = UTC
MEAN_ELEMENT_THEORY = SGP/SGP4

EPOCH          = 2026-03-27T04:47:18.161664
MEAN_MOTION    = 14.16864025
ECCENTRICITY   = .0010665
INCLINATION    = 71.0000
RA_OF_ASC_NODE = 151.4927
ARG_OF_PERICENTER = 63.5702
MEAN_ANOMALY   = 328.1233

EPHEMERIS_TYPE = 0
CLASSIFICATION_TYPE = U
NORAD_CAT_ID   = 22220
ELEMENT_SET_NO = 999
REV_AT_EPOCH   = 72431
BSTAR          = .5709E-5
MEAN_MOTION_DOT = -.36E-6
MEAN_MOTION_DDOT = 0

CCSDS_OMM_VERS = 2.0
CREATION_DATE  = 
ORIGINATOR     = 

OBJECT_NAME    = COSMOS 2221
OBJECT_ID      = 1992-080A
CENTER_NAME    = EARTH
REF_FRAME      = TEME
TIME_SYSTEM    = UTC
MEAN_ELEMENT_THEORY = SGP/SGP4

EPOCH          = 2026-03-26T22:59:59.324064
MEAN_MOTION    = 14.96269736
ECCENTRICITY   = .0015396
INCLINATION    = 82.5007
RA_OF_ASC_NODE = 262.5342
ARG_OF_PERICENTER = 131.2419
MEAN_ANOMALY   = 229.0132

EPHEMERIS_TYPE = 0
CLASSIFICATION_TYPE = U
NORAD_CAT_ID   = 22236
ELEMENT_SET_NO = 999
REV_AT_EPOCH   = 78337
BSTAR          = .21562E-3
MEAN_MOTION_DOT = .2465E-4
MEAN_MOTION_DDOT = 0

CCSDS_OMM_VERS = 2.0
CREATION_DATE  = 
ORIGINATOR     = 

OBJECT_NAME    = SL-16 R/B
OBJECT_ID      = 1992-093B
CENTER_NAME    = EARTH
REF_FRAME      = TEME
TIME_SYSTEM    = UTC
MEAN_ELEMENT_THEORY = SGP/SGP4

EPOCH          = 2026-03-27T02:59:03.691392
MEAN_MOTION    = 14.15453631
ECCENTRICITY   = .0006444
INCLINATION    = 71.0232
RA_OF_ASC_NODE = 327.6686
ARG_OF_PERICENTER = 276.6837
MEAN_ANOMALY   = 83.3552

EPHEMERIS_TYPE = 0
CLASSIFICATION_TYPE = U
NORAD_CAT_ID   = 22285
ELEMENT_SET_NO = 999
REV_AT_EPOCH   = 71562
BSTAR          = .1575E-3
MEAN_MOTION_DOT = .26E-5
MEAN_MOTION_DDOT = 0

CCSDS_OMM_VERS = 2.0
CREATION_DATE  = 
ORIGINATOR     = 

OBJECT_NAME    = COSMOS 2228
OBJECT_ID      = 1992-094A
CENTER_NAME    = EARTH
REF_FRAME      = TEME
TIME_SYSTEM    = UTC
MEAN_ELEMENT_THEORY = SGP/SGP4

EPOCH          = 2026-03-27T03:55:38.444160
MEAN_MOTION    = 14.97276364
ECCENTRICITY   = .0016765
INCLINATION    = 82.5183
RA_OF_ASC_NODE = 220.5792
ARG_OF_PERICENTER = 240.8169
MEAN_ANOMALY   = 119.1377

EPHEMERIS_TYPE = 0
CLASSIFICATION_TYPE = U
NORAD_CAT_ID   = 22286
ELEMENT_SET_NO = 999
REV_AT_EPOCH   = 77867
BSTAR          = .21412E-3
MEAN_MOTION_DOT = .2513E-4
MEAN_MOTION_DDOT = 0

CCSDS_OMM_VERS = 2.0
CREATION_DATE  = 
ORIGINATOR     = 

OBJECT_NAME    = SL-16 R/B
OBJECT_ID      = 1993-016B
CENTER_NAME    = EARTH
REF_FRAME      = TEME
TIME_SYSTEM    = UTC
MEAN_ELEMENT_THEORY = SGP/SGP4

EPOCH          = 2026-03-26T16:07:19.549920
MEAN_MOTION    = 14.15305436
ECCENTRICITY   = .0012341
INCLINATION    = 71.0078
RA_OF_ASC_NODE = 179.5163
ARG_OF_PERICENTER = 292.2002
MEAN_ANOMALY   = 67.7812

EPHEMERIS_TYPE = 0
CLASSIFICATION_TYPE = U
NORAD_CAT_ID   = 22566
ELEMENT_SET_NO = 999
REV_AT_EPOCH   = 70457
BSTAR          = -.37174357E-4
MEAN_MOTION_DOT = -.12E-5
MEAN_MOTION_DDOT = 0

